{
  "type": "FeatureCollection",
  "features": [
    {
      "type": "Feature",
      "properties": {
        "norad_id": 66933,
        "name": "STARLINK-36157",
        "group": "last-30-days",
        "lat": 50.813615049402415,
        "lon": 145.29049022440623,
        "alt_km": 298.0506112934354,
        "timestamp": "2025-12-16T08:59:41.909720+00:00",
        "meta_object_name": "STARLINK-36157",
        "meta_object_id": "2025-286J",
        "meta_epoch": "2025-12-15T22:00:01.999584",
        "meta_mean_motion": 15.90110512,
        "meta_eccentricity": 6.071e-05,
        "meta_inclination": 53.1568,
        "meta_ra_of_asc_node": 34.5169,
        "meta_arg_of_pericenter": 83.2488,
        "meta_mean_anomaly": 278.2052,
        "meta_ephemeris_type": 0,
        "meta_classification_type": "U",
        "meta_norad_cat_id": 66933,
        "meta_element_set_no": 999,
        "meta_rev_at_epoch": 250,
        "meta_bstar": -0.0044725675,
        "meta_mean_motion_dot": -0.01206218,
        "meta_mean_motion_ddot": 0,
        "tle_line1": "1 66933U 25286J   25349.91668981 -.01206218  00000+0 -44726-2 0  9997",
        "tle_line2": "2 66933  53.1568  34.5169 0000607  83.2488 278.2052 15.90110512  2509"
      },
      "geometry": {
        "type": "Point",
        "coordinates": [
          145.29049022440623,
          50.813615049402415
        ]
      }
    },
    {
      "type": "Feature",
      "properties": {
        "norad_id": 66934,
        "name": "STARLINK-36153",
        "group": "last-30-days",
        "lat": 50.12480551496146,
        "lon": 148.34554258177528,
        "alt_km": 298.0092941960329,
        "timestamp": "2025-12-16T08:59:41.909735+00:00",
        "meta_object_name": "STARLINK-36153",
        "meta_object_id": "2025-286K",
        "meta_epoch": "2025-12-15T22:00:01.999584",
        "meta_mean_motion": 15.90158421,
        "meta_eccentricity": 6.49e-05,
        "meta_inclination": 53.1568,
        "meta_ra_of_asc_node": 34.5124,
        "meta_arg_of_pericenter": 86.7903,
        "meta_mean_anomaly": 276.6555,
        "meta_ephemeris_type": 0,
        "meta_classification_type": "U",
        "meta_norad_cat_id": 66934,
        "meta_element_set_no": 999,
        "meta_rev_at_epoch": 250,
        "meta_bstar": -0.0045000789,
        "meta_mean_motion_dot": -0.01215301,
        "meta_mean_motion_ddot": 0,
        "tle_line1": "1 66934U 25286K   25349.91668981 -.01215301  00000+0 -45001-2 0  9998",
        "tle_line2": "2 66934  53.1568  34.5124 0000649  86.7903 276.6555 15.90158421  2508"
      },
      "geometry": {
        "type": "Point",
        "coordinates": [
          148.34554258177528,
          50.12480551496146
        ]
      }
    },
    {
      "type": "Feature",
      "properties": {
        "norad_id": 66935,
        "name": "STARLINK-36127",
        "group": "last-30-days",
        "lat": 49.253762158855366,
        "lon": 151.6840630793745,
        "alt_km": 298.04142456899626,
        "timestamp": "2025-12-16T08:59:41.909745+00:00",
        "meta_object_name": "STARLINK-36127",
        "meta_object_id": "2025-286L",
        "meta_epoch": "2025-12-15T22:00:01.999584",
        "meta_mean_motion": 15.90206554,
        "meta_eccentricity": 5.967e-05,
        "meta_inclination": 53.1567,
        "meta_ra_of_asc_node": 34.508,
        "meta_arg_of_pericenter": 89.4227,
        "meta_mean_anomaly": 276.2746,
        "meta_ephemeris_type": 0,
        "meta_classification_type": "U",
        "meta_norad_cat_id": 66935,
        "meta_element_set_no": 999,
        "meta_rev_at_epoch": 250,
        "meta_bstar": -0.0045031285,
        "meta_mean_motion_dot": -0.01242783,
        "meta_mean_motion_ddot": 0,
        "tle_line1": "1 66935U 25286L   25349.91668981 -.01242783  00000+0 -45031-2 0  9996",
        "tle_line2": "2 66935  53.1567  34.5080 0000596  89.4227 276.2746 15.90206554  2508"
      },
      "geometry": {
        "type": "Point",
        "coordinates": [
          151.6840630793745,
          49.253762158855366
        ]
      }
    },
    {
      "type": "Feature",
      "properties": {
        "norad_id": 66936,
        "name": "STARLINK-36160",
        "group": "last-30-days",
        "lat": 48.462017445979626,
        "lon": 154.35562049099605,
        "alt_km": 298.08660034579134,
        "timestamp": "2025-12-16T08:59:41.909755+00:00",
        "meta_object_name": "STARLINK-36160",
        "meta_object_id": "2025-286M",
        "meta_epoch": "2025-12-15T22:00:01.999584",
        "meta_mean_motion": 15.90255108,
        "meta_eccentricity": 5.2e-05,
        "meta_inclination": 53.1566,
        "meta_ra_of_asc_node": 34.5043,
        "meta_arg_of_pericenter": 94.2707,
        "meta_mean_anomaly": 273.2809,
        "meta_ephemeris_type": 0,
        "meta_classification_type": "U",
        "meta_norad_cat_id": 66936,
        "meta_element_set_no": 999,
        "meta_rev_at_epoch": 250,
        "meta_bstar": -0.0045225336,
        "meta_mean_motion_dot": -0.01250275,
        "meta_mean_motion_ddot": 0,
        "tle_line1": "1 66936U 25286M   25349.91668981 -.01250275  00000+0 -45225-2 0  9997",
        "tle_line2": "2 66936  53.1566  34.5043 0000520  94.2707 273.2809 15.90255108  2507"
      },
      "geometry": {
        "type": "Point",
        "coordinates": [
          154.35562049099605,
          48.462017445979626
        ]
      }
    },
    {
      "type": "Feature",
      "properties": {
        "norad_id": 66937,
        "name": "STARLINK-36165",
        "group": "last-30-days",
        "lat": 47.58899906657469,
        "lon": 157.00297920366964,
        "alt_km": 298.0849727389059,
        "timestamp": "2025-12-16T08:59:41.909765+00:00",
        "meta_object_name": "STARLINK-36165",
        "meta_object_id": "2025-286N",
        "meta_epoch": "2025-12-15T22:00:01.999584",
        "meta_mean_motion": 15.90298896,
        "meta_eccentricity": 6.212e-05,
        "meta_inclination": 53.1566,
        "meta_ra_of_asc_node": 34.5,
        "meta_arg_of_pericenter": 78.7291,
        "meta_mean_anomaly": 290.7235,
        "meta_ephemeris_type": 0,
        "meta_classification_type": "U",
        "meta_norad_cat_id": 66937,
        "meta_element_set_no": 999,
        "meta_rev_at_epoch": 250,
        "meta_bstar": -0.0045251867,
        "meta_mean_motion_dot": -0.01253496,
        "meta_mean_motion_ddot": 0,
        "tle_line1": "1 66937U 25286N   25349.91668981 -.01253496  00000+0 -45252-2 0  9996",
        "tle_line2": "2 66937  53.1566  34.5000 0000621  78.7291 290.7235 15.90298896  2506"
      },
      "geometry": {
        "type": "Point",
        "coordinates": [
          157.00297920366964,
          47.58899906657469
        ]
      }
    },
    {
      "type": "Feature",
      "properties": {
        "norad_id": 66938,
        "name": "STARLINK-36155",
        "group": "last-30-days",
        "lat": 46.65327232693953,
        "lon": 159.56962768602511,
        "alt_km": 298.11219777416045,
        "timestamp": "2025-12-16T08:59:41.909777+00:00",
        "meta_object_name": "STARLINK-36155",
        "meta_object_id": "2025-286P",
        "meta_epoch": "2025-12-15T22:00:01.999584",
        "meta_mean_motion": 15.90348479,
        "meta_eccentricity": 5.496e-05,
        "meta_inclination": 53.1564,
        "meta_ra_of_asc_node": 34.4959,
        "meta_arg_of_pericenter": 90.865,
        "meta_mean_anomaly": 280.4952,
        "meta_ephemeris_type": 0,
        "meta_classification_type": "U",
        "meta_norad_cat_id": 66938,
        "meta_element_set_no": 999,
        "meta_rev_at_epoch": 250,
        "meta_bstar": -0.0045441799,
        "meta_mean_motion_dot": -0.01260985,
        "meta_mean_motion_ddot": 0,
        "tle_line1": "1 66938U 25286P   25349.91668981 -.01260985  00000+0 -45442-2 0  9999",
        "tle_line2": "2 66938  53.1564  34.4959 0000549  90.8650 280.4952 15.90348479  2505"
      },
      "geometry": {
        "type": "Point",
        "coordinates": [
          159.56962768602511,
          46.65327232693953
        ]
      }
    },
    {
      "type": "Feature",
      "properties": {
        "norad_id": 66939,
        "name": "STARLINK-36154",
        "group": "last-30-days",
        "lat": 44.44252596436197,
        "lon": 164.82035206486586,
        "alt_km": 298.2064451063625,
        "timestamp": "2025-12-16T08:59:41.909787+00:00",
        "meta_object_name": "STARLINK-36154",
        "meta_object_id": "2025-286Q",
        "meta_epoch": "2025-12-15T22:00:01.999584",
        "meta_mean_motion": 15.90441491,
        "meta_eccentricity": 5.679e-05,
        "meta_inclination": 53.1564,
        "meta_ra_of_asc_node": 34.4873,
        "meta_arg_of_pericenter": 91.7572,
        "meta_mean_anomaly": 283.7456,
        "meta_ephemeris_type": 0,
        "meta_classification_type": "U",
        "meta_norad_cat_id": 66939,
        "meta_element_set_no": 999,
        "meta_rev_at_epoch": 250,
        "meta_bstar": -0.0045611754,
        "meta_mean_motion_dot": -0.01270579,
        "meta_mean_motion_ddot": 0,
        "tle_line1": "1 66939U 25286Q   25349.91668981 -.01270579  00000+0 -45612-2 0  9999",
        "tle_line2": "2 66939  53.1564  34.4873 0000567  91.7572 283.7456 15.90441491  2507"
      },
      "geometry": {
        "type": "Point",
        "coordinates": [
          164.82035206486586,
          44.44252596436197
        ]
      }
    }
  ]
}